satname,norad_id,inclination_deg,eccentricity,mean_motion_rev_per_day,perigee_km,apogee_km,l1,l2
STARLINK-1263,45405,53.1581,0.0001283,15.30189746,474.36639718736296,476.12497518463806,1 45405U 20019AX  26075.28293269 -.00005066  00000+0 -15907-3 0  9994,2 45405  53.1581  98.6458 0001283  80.0706 280.0440 15.30189746330983
STARLINK-1265,45406,53.1611,0.0001624,15.3018767,474.1388944691407,476.36487517893147,1 45406U 20019AY  26075.75491659 -.00001170  00000+0 -27374-4 0  9994,2 45406  53.1611  96.5289 0001624 115.1426 244.9743 15.30187670331053
STARLINK-1278,45408,53.0451,0.0003055,15.57470046,392.9128136461959,397.05118935611335,1 45408U 20019BA  26075.77924252  .00095901  00000+0  12732-2 0  9991,2 45408  53.0451  96.0310 0003055  61.8937 298.2383 15.57470046331064
STARLINK-1296,45412,53.1576,0.00017,15.30536308,473.046199049978,475.37599740337555,1 45412U 20019BE  26075.74818965  .00042237  00000+0  14153-2 0  9999,2 45412  53.1576  96.4593 0001700  86.5409 273.5786 15.30536308331055
STARLINK-1298,45413,53.033,0.0003248,16.02765079,264.60694065355347,268.9234691258498,1 45413U 20019BF  26075.85962536  .00436411  96263-4  71180-3 0  9992,2 45413  53.0330  16.8240 0003248  64.0890 296.0475 16.02765079332260
STARLINK-1309,45414,53.0676,0.000661,15.56227263,394.1080571097573,403.0668868617231,1 45414U 20019BG  26075.75967037  .00090181  00000+0  12544-2 0  9990,2 45414  53.0676  89.4146 0006610  55.4901 304.6733 15.56227263331132
STARLINK-1316,45415,53.1603,0.0001258,15.30385147,473.8002274312212,475.5243917375128,1 45415U 20019BH  26075.20575690  .00009076  00000+0  31638-3 0  9990,2 45415  53.1603  99.0285 0001258 104.3170 255.7971 15.30385147330991
STARLINK-1286,45417,53.048,0.0003534,15.5141234,410.20175946398376,415.00145351104857,1 45417U 20019BK  26075.75804963  .00027473  00000+0  46442-3 0  9990,2 45417  53.0480  96.7438 0003534  74.1301 286.0097 15.51412340331321
STARLINK-1308,45419,53.0538,0.0003354,15.51722212,409.4202124360145,413.97483343399836,1 45419U 20019BM  26074.54553749  .00078920  00000+0  12967-2 0  9998,2 45419  53.0538 123.9603 0003354  35.9116 324.2117 15.51722212330580
STARLINK-1329,45531,53.0492,3.84e-05,15.57834646,393.66511321251346,394.1852075864317,1 45531U 20025A   26075.63815381  .00101515  00000+0  13283-2 0  9993,2 45531  53.0492  47.6557 0000384  56.6307 303.4741 15.57834646326539
STARLINK-1338,45532,53.0483,0.0004879,15.5628887,395.102352645883,401.71490587091284,1 45532U 20025B   26075.89822605  .00097335  00000+0  13495-2 0  9998,2 45532  53.0483  49.8492 0004879  37.5601 322.5750 15.56288870326522
STARLINK-1350,45535,53.0734,0.0002327,15.3632861,455.38647123156534,458.5675332882174,1 45535U 20025E   26075.81698934  .00009942  00000+0  28697-3 0  9997,2 45535  53.0734 359.6664 0002327  86.0512 274.0756 15.36328610327256
STARLINK-1362,45538,53.1623,0.0001446,15.29681527,475.7723549563534,477.75479220223406,1 45538U 20025H   26075.70987715 -.00172732  00000+0 -60521-2 0  9997,2 45538  53.1623  68.3886 0001446 109.8431 250.2726 15.29681527326255
STARLINK-1368,45540,53.161,9.91e-05,15.30184887,474.5810228226119,475.9393661465583,1 45540U 20025K   26075.26230009  .00000010  00000+0  12452-4 0  9997,2 45540  53.1610  70.7981 0000991  85.9427 274.1687 15.30184887326171
STARLINK-1371,45542,53.0506,0.0001948,15.48231206,420.5756817314923,423.22497627487246,1 45542U 20025M   26075.20563617  .00087150  00000+0  16172-2 0  9998,2 45542  53.0506  58.2686 0001948  45.0400 315.0765 15.48231206326348
STARLINK-1372,45543,53.16,0.0001355,15.30396119,473.7010061027977,475.5581058394664,1 45543U 20025N   26075.17354995  .00022750  00000+0  77320-3 0  9990,2 45543  53.1600  70.9017 0001355 279.5201  80.5647 15.30396119325268
STARLINK-1373,45544,53.0495,0.0005002,15.52107748,407.1773890530894,413.96881463897626,1 45544U 20025P   26075.65430267  .00090225  00000+0  14586-2 0  9997,2 45544  53.0495  55.4791 0005002  39.4235 320.7137 15.52107748326424
STARLINK-1327,45555,53.0465,0.0006692,15.55628048,395.7914370947128,404.86373409607313,1 45555U 20025AA  26075.91668981  .00091287  00000+0  12978-2 0  9996,2 45555  53.0465  31.6991 0006692  92.1112 269.0842 15.55628048  5917
STARLINK-1356,45564,53.0517,0.000606,15.45988651,424.34985837861404,432.59947171665226,1 45564U 20025AK  26075.19828900  .00097381  00000+0  19482-2 0  9993,2 45564  53.0517  42.8395 0006060  59.0087 301.1514 15.45988651326557
STARLINK-1357,45565,53.0519,0.0004552,15.5729415,392.40865075247893,398.57536260015695,1 45565U 20025AL  26075.91668981  .00076511  00000+0  10261-2 0  9993,2 45565  53.0519   3.0030 0004552 131.6473 284.3785 15.57294150  5817
STARLINK-1361,45567,53.0495,0.0007537,15.4902153,414.4637295270204,424.7106189472652,1 45567U 20025AN  26075.85437120  .00085683  00000+0  15458-2 0  9990,2 45567  53.0495  39.6150 0007537  61.8007 298.3761 15.49021530326662
STARLINK-1363,45568,53.0429,0.0007649,15.78364137,329.9402102301474,340.2100821714048,1 45568U 20025AP  26075.09596703  .00108667  00000+0  61213-3 0  9999,2 45568  53.0429   5.6832 0007649  83.2858 276.9033 15.78364137327060
STARLINK-1366,45569,53.0426,0.0007814,15.7757389,332.0693829072652,342.5642941661299,1 45569U 20025AQ  26075.91668981  .00015781  00000+0  96469-4 0  9995,2 45569  53.0426   2.4018 0007814  86.1080 149.4349 15.77573890  6023
STARLINK-1376,45570,53.1624,0.0001304,15.30471449,473.5111199937255,475.29826286685056,1 45570U 20025AR  26075.64261065  .00017323  00000+0  59069-3 0  9997,2 45570  53.1624  45.5068 0001304 115.0601 245.0536 15.30471449326569
STARLINK-1320,45572,53.048,0.000657,15.69848527,354.903852260587,363.7568843825611,1 45572U 20025AT  26075.87573056  .00062532  00000+0  51360-3 0  9998,2 45572  53.0480 310.2372 0006570  78.3826 281.7927 15.69848527327930
STARLINK-1321,45573,53.0488,0.0004466,15.497605,414.39120483378065,420.461001797662,1 45573U 20025AU  26075.85534277  .00088358  00000+0  15534-2 0  9995,2 45573  53.0488  24.1523 0004466  85.6032 274.5486 15.49760500326571
STARLINK-1331,45578,53.0532,0.0005581,15.49697315,413.81810983638206,421.40352354937386,1 45578U 20025AZ  26075.86319273  .00073158  00000+0  12927-2 0  9993,2 45578  53.0532  30.7969 0005581 107.1087 253.0533 15.49697315326794
STARLINK-1333,45580,53.1616,0.0001403,15.3018599,474.29536990884935,476.21843223748965,1 45580U 20025BB  26075.61673821 -.00001179  00000+0 -27710-4 0  9995,2 45580  53.1616  45.6318 0001403 109.6369 250.4783 15.30185990326567
STARLINK-1335,45581,53.1571,0.0001454,15.29344917,476.77253384508003,478.7662314211493,1 45581U 20025BC  26075.63018907 -.00001884  00000+0 -52969-4 0  9993,2 45581  53.1571  42.8533 0001454  89.3127 270.8039 15.29344917326595
STARLINK-1337,45582,53.0535,0.000522,15.59223683,386.36971112605806,393.43554449749354,1 45582U 20025BD  26075.86660646  .00096607  00000+0  12001-2 0  9998,2 45582  53.0535  26.8739 0005220 105.8242 254.3345 15.59223683326835
STARLINK-1347,45586,53.0462,0.0005395,15.55614705,396.7093436763871,404.02334878697,1 45586U 20025BH  26075.04560313  .00128027  00000+0  18105-2 0  9995,2 45586  53.0462 358.7645 0005395  88.6950 271.4678 15.55614705327158
STARLINK-1364,45589,53.0504,0.0007922,15.50995804,408.4367813187955,419.1979538187725,1 45589U 20025BL  26075.84427190  .00095349  00000+0  16013-2 0  9997,2 45589  53.0504  28.8629 0007922  88.9671 271.2245 15.50995804326802
STARLINK-1365,45590,53.052,0.0004221,15.46541384,423.98039618143866,429.72516855571394,1 45590U 20025BM  26075.65073595  .00085011  00000+0  16730-2 0  9995,2 45590  53.0520  60.3454 0004221  67.9738 292.1716 15.46541384326360
STARLINK-1443,45660,53.1383,0.0003357,15.25828519,485.99361396187396,490.603738875021,1 45660U 20035D   26075.85643911  .00050291  00000+0  19402-2 0  9992,2 45660  53.1383  31.8430 0003357  83.8472 276.2909 15.25828519319852
STARLINK-1446,45663,53.0254,5.62e-05,15.43214403,436.24676387828003,437.0127436614039,1 45663U 20035G   26075.87094645  .00014815  00000+0  33715-3 0  9997,2 45663  53.0254 325.2575 0000562 334.4503  25.6474 15.43214403320784
STARLINK-1448,45665,53.0504,0.0007978,15.5398011,399.7072634780916,410.5306266640464,1 45665U 20035J   26075.85799778  .00101186  00000+0  15248-2 0  9994,2 45665  53.0504  18.1754 0007978 106.7953 253.3932 15.53980110320031
STARLINK-1451,45668,53.0533,0.0002071,15.10456647,533.3746831602111,536.238024297325,1 45668U 20035M   26075.16606670  .00028647  00000+0  17321-2 0  9993,2 45668  53.0533  36.8119 0002071  61.4380 298.6820 15.10456647319726
STARLINK-1452,45669,53.0324,0.0007247,15.46198907,422.9252933757025,432.7899019455508,1 45669U 20035N   26075.08204302  .00104855  00000+0  20794-2 0  9995,2 45669  53.0324 351.2478 0007247  70.2554 289.9233 15.46198907320351
STARLINK-1453,45670,53.0482,0.0005714,15.54046406,401.0501845801018,408.80186900712215,1 45670U 20035P   26075.01197324  .00109952  00000+0  16514-2 0  9993,2 45670  53.0482 342.8386 0005714  79.1803 280.9850 15.54046406320355
STARLINK-1454,45671,53.0509,0.0008365,15.52730221,403.0813947083134,414.4358711021632,1 45671U 20035Q   26075.91668981  .00087339  00000+0  13803-2 0  9997,2 45671  53.0509  18.0855 0008365  91.6500   3.2098 15.52730221  5754
STARLINK-1456,45673,53.0493,0.0002203,15.51025584,412.23418097852846,415.2266777679097,1 45673U 20035S   26075.12921362  .00063609  00000+0  10751-2 0  9990,2 45673  53.0493  15.4050 0002203 140.7720 219.3449 15.51025584320029
STARLINK-1457,45674,53.0476,0.0008129,15.80699456,323.00967477020095,333.9132625605571,1 45674U 20035T   26075.91668981  .00100019  00000+0  50740-3 0  9993,2 45674  53.0476 346.1852 0008129  99.4016 108.8392 15.80699456  5976
STARLINK-1458,45675,53.0523,0.0006995,15.43935025,429.7436430499829,439.2745349284796,1 45675U 20035U   26075.86489420  .00038777  00000+0  84359-3 0  9991,2 45675  53.0523  21.4006 0006995 103.6529 256.5255 15.43935025319960
